{"type":"FeatureCollection","features":[{"type":"Feature","properties":{"kind":"building","id":"b0","name":"弓道場","levels":1},"geometry":{"type":"Polygon","coordinates":[[[140.551606,36.401344],[140.551709,36.401359],[140.551684,36.401463],[140.551581,36.401447],[140.551606,36.401344]]]}},{"type":"Feature","properties":{"kind":"building","id":"b1","name":"実習工場","levels":1},"geometry":{"type":"Polygon","coordinates":[[[140.552227,36.400622],[140.551741,36.400547],[140.551774,36.400407],[140.55226,36.400482],[140.552227,36.400622]]]}},{"type":"Feature","properties":{"kind":"building","id":"b2","name":"合宿所","levels":1},"geometry":{"type":"Polygon","coordinates":[[[140.552277,36.399408],[140.552071,36.399376],[140.55209,36.399295],[140.552296,36.399327],[140.552277,36.399408]]]}},{"type":"Feature","properties":{"kind":"building","id":"b3","name":"武道館","levels":2},"geometry":{"type":"Polygon","coordinates":[[[140.552122,36.399804],[140.551828,36.399759],[140.551859,36.399626],[140.552154,36.399672],[140.552122,36.399804]]]}},{"type":"Feature","properties":{"kind":"building","id":"b4","name":"9号館","levels":1},"geometry":{"type":"Polygon","coordinates":[[[140.551649,36.400869],[140.551677,36.400751],[140.552156,36.400825],[140.552128,36.400943],[140.551649,36.400869]]]}},{"type":"Feature","properties":{"kind":"building","id":"b5","name":"6号館","levels":2},"geometry":{"type":"Polygon","coordinates":[[[140.550494,36.400944],[140.550523,36.400819],[140.550789,36.40086],[140.55078,36.400896],[140.550765,36.400894],[140.550758,36.400924],[140.550773,36.400926],[140.550759,36.400985],[140.550494,36.400944]]]}},{"type":"Feature","properties":{"kind":"building","id":"b6","name":"10号館","levels":3},"geometry":{"type":"Polygon","coordinates":[[[140.550602,36.400068],[140.550455,36.400045],[140.550507,36.399824],[140.550654,36.399846],[140.550602,36.400068]]]}},{"type":"Feature","properties":{"kind":"building","id":"b7","name":"寮食堂","levels":1},"geometry":{"type":"Polygon","coordinates":[[[140.550334,36.399782],[140.550009,36.399732],[140.55003,36.399644],[140.550354,36.399694],[140.550334,36.399782]]]}},{"type":"Feature","properties":{"kind":"building","id":"b8","name":"新友館","levels":3},"geometry":{"type":"Polygon","coordinates":[[[140.550003,36.400342],[140.549989,36.400401],[140.549804,36.400373],[140.549818,36.400314],[140.54987,36.400322],[140.549887,36.400248],[140.550241,36.400302],[140.550224,36.400376],[140.550003,36.400342]]]}},{"type":"Feature","properties":{"kind":"building","id":"b9","name":"北友館","levels":3},"geometry":{"type":"Polygon","coordinates":[[[140.550272,36.400109],[140.549888,36.40005],[140.549906,36.399976],[140.550289,36.400035],[140.550272,36.400109]]]}},{"type":"Feature","properties":{"kind":"building","id":"b10","name":"虹友館","levels":3},"geometry":{"type":"Polygon","coordinates":[[[140.549566,36.400123],[140.549404,36.400098],[140.549487,36.399744],[140.54965,36.399769],[140.549566,36.400123]]]}},{"type":"Feature","properties":{"kind":"building","id":"b11","name":"西友館","levels":5},"geometry":{"type":"Polygon","coordinates":[[[140.549216,36.400245],[140.549227,36.4002],[140.549757,36.400282],[140.549749,36.400318],[140.549528,36.400285],[140.549514,36.400344],[140.549381,36.400323],[140.549393,36.400272],[140.549216,36.400245]]]}},{"type":"Feature","properties":{"kind":"building","id":"b12","name":"紫峰館","levels":3},"geometry":{"type":"Polygon","coordinates":[[[140.549503,36.399548],[140.549517,36.399489],[140.549687,36.399515],[140.549673,36.399574],[140.549621,36.399566],[140.549611,36.39961],[140.549522,36.399597],[140.549533,36.399552],[140.549503,36.399548]]]}},{"type":"Feature","properties":{"kind":"building","id":"b13","name":"第一体育館","levels":3},"geometry":{"type":"Polygon","coordinates":[[[140.551817,36.400093],[140.55187,36.399872],[140.552341,36.399945],[140.552332,36.399981],[140.552406,36.399993],[140.552375,36.400125],[140.552301,36.400114],[140.552289,36.400166],[140.551817,36.400093]]]}},{"type":"Feature","properties":{"kind":"building","id":"b14","name":"プール","levels":2},"geometry":{"type":"Polygon","coordinates":[[[140.552139,36.399799],[140.55221,36.399497],[140.55249,36.39954],[140.552419,36.399842],[140.552139,36.399799]]]}},{"type":"Feature","properties":{"kind":"building","id":"b15","name":"守衛所","levels":1},"geometry":{"type":"Polygon","coordinates":[[[140.551697,36.399281],[140.551717,36.399192],[140.551791,36.399204],[140.55177,36.399292],[140.551697,36.399281]]]}},{"type":"Feature","properties":{"kind":"building","id":"b16","name":"2階渡り廊下","levels":1},"geometry":{"type":"Polygon","coordinates":[[[140.550952,36.400266],[140.551008,36.40003],[140.551067,36.400039],[140.551011,36.400275],[140.550952,36.400266]]]}},{"type":"Feature","properties":{"kind":"building","id":"b17","name":"2階渡り廊下","levels":1},"geometry":{"type":"Polygon","coordinates":[[[140.551618,36.400032],[140.551688,36.399738],[140.551725,36.399743],[140.551655,36.400038],[140.551618,36.400032]]]}},{"type":"Feature","properties":{"kind":"building","id":"b18","name":"1階渡り廊下","levels":1},"geometry":{"type":"Polygon","coordinates":[[[140.550899,36.400716],[140.550906,36.400687],[140.550965,36.400696],[140.550958,36.400725],[140.550899,36.400716]]]}},{"type":"Feature","properties":{"kind":"building","id":"b19","name":"7号館","levels":2},"geometry":{"type":"Polygon","coordinates":[[[140.550851,36.400984],[140.550886,36.400836],[140.551313,36.400902],[140.551303,36.400946],[140.551362,36.400955],[140.551344,36.401029],[140.551388,36.401035],[140.551374,36.401094],[140.551109,36.401054],[140.551116,36.401024],[140.550851,36.400984]]]}},{"type":"Feature","properties":{"kind":"building","id":"b20","name":"寄宿舎管理棟","levels":2},"geometry":{"type":"Polygon","coordinates":[[[140.550239,36.399859],[140.549708,36.399778],[140.549747,36.399616],[140.549953,36.399647],[140.549939,36.399706],[140.549821,36.399688],[140.549811,36.399733],[140.550253,36.3998],[140.550239,36.399859]]]}},{"type":"Feature","properties":{"kind":"building","id":"b21","name":"情報センター","levels":2},"geometry":{"type":"Polygon","coordinates":[[[140.550827,36.399247],[140.55062,36.399215],[140.55065,36.39909],[140.550856,36.399122],[140.550827,36.399247]]]}},{"type":"Feature","properties":{"kind":"building","id":"b22","name":"図書館棟","levels":1},"geometry":{"type":"Polygon","coordinates":[[[140.55083,36.399263],[140.550865,36.399115],[140.551271,36.399177],[140.551258,36.399229],[140.551339,36.399241],[140.551303,36.399396],[140.551038,36.399356],[140.551052,36.399297],[140.55083,36.399263]]]}},{"type":"Feature","properties":{"kind":"building","id":"b23","name":"共用部室","levels":1},"geometry":{"type":"Polygon","coordinates":[[[140.550622,36.399307],[140.550828,36.399339],[140.550807,36.399427],[140.550601,36.399395],[140.550622,36.399307]]]}},{"type":"Feature","properties":{"kind":"plaza"},"geometry":{"type":"Polygon","coordinates":[[[140.55043,36.400377],[140.550492,36.400112],[140.550971,36.400185],[140.550952,36.400266],[140.551011,36.400275],[140.55103,36.400194],[140.551693,36.400296],[140.55163,36.400561],[140.550953,36.400457],[140.550965,36.400406],[140.550943,36.400402],[140.550931,36.400454],[140.55043,36.400377]],[[140.550567,36.400346],[140.551511,36.400489],[140.55154,36.400364],[140.550597,36.400221],[140.550567,36.400346]]]}},{"type":"Feature","properties":{"kind":"plaza"},"geometry":{"type":"Polygon","coordinates":[[[140.551331,36.399889],[140.551359,36.399771],[140.55175,36.399831],[140.551722,36.399949],[140.551331,36.399889]]]}},{"type":"Feature","properties":{"kind":"plaza"},"geometry":{"type":"Polygon","coordinates":[[[140.551643,36.400571],[140.551708,36.400298],[140.552371,36.4004],[140.552307,36.400672],[140.551643,36.400571]]]}},{"type":"Feature","properties":{"kind":"plaza"},"geometry":{"type":"Polygon","coordinates":[[[140.551733,36.400256],[140.551782,36.40005],[140.551819,36.400055],[140.551875,36.39982],[140.552486,36.399913],[140.552381,36.400355],[140.551733,36.400256]]]}},{"type":"Feature","properties":{"kind":"plaza"},"geometry":{"type":"Polygon","coordinates":[[[140.551305,36.39945],[140.551129,36.399423],[140.55112,36.39946],[140.551046,36.399448],[140.551041,36.399471],[140.55054,36.399394],[140.550638,36.398981],[140.55161,36.39913],[140.551526,36.399484],[140.551305,36.39945]]]}},{"type":"Feature","properties":{"kind":"plaza"},"geometry":{"type":"Polygon","coordinates":[[[140.550466,36.399673],[140.550515,36.399466],[140.550589,36.399478],[140.55054,36.399684],[140.550466,36.399673]]]}},{"type":"Feature","properties":{"kind":"building","id":"b30","name":"茨友会館","levels":2},"geometry":{"type":"Polygon","coordinates":[[[140.550851,36.399724],[140.550645,36.399692],[140.550687,36.399516],[140.550893,36.399547],[140.550851,36.399724]]]}},{"type":"Feature","properties":{"kind":"plaza"},"geometry":{"type":"Polygon","coordinates":[[[140.551692,36.399334],[140.551704,36.399282],[140.55177,36.399292],[140.551791,36.399204],[140.551725,36.399194],[140.551735,36.399149],[140.552634,36.399287],[140.552587,36.399486],[140.55199,36.399395],[140.551994,36.39938],[140.551692,36.399334]],[[140.551915,36.399314],[140.552018,36.399329],[140.552039,36.399241],[140.551935,36.399225],[140.551915,36.399314]],[[140.552068,36.399375],[140.552275,36.399406],[140.552294,36.399325],[140.552087,36.399294],[140.552068,36.399375]]]}},{"type":"Feature","properties":{"kind":"building","id":"b32","name":"2・3号館","levels":3},"geometry":{"type":"Polygon","coordinates":[[[140.550567,36.400345],[140.550597,36.400219],[140.551532,36.400363],[140.551503,36.400488],[140.550567,36.400345]]]}},{"type":"Feature","properties":{"kind":"building","id":"b33","name":"1号館","levels":3},"geometry":{"type":"Polygon","coordinates":[[[140.550726,36.399964],[140.550748,36.399869],[140.551021,36.39991],[140.551078,36.399667],[140.550887,36.399638],[140.550909,36.399542],[140.551352,36.39961],[140.551334,36.399683],[140.551179,36.39966],[140.551167,36.399711],[140.551219,36.399719],[140.551172,36.399918],[140.551128,36.399911],[140.551119,36.399948],[140.55162,36.400025],[140.551618,36.400032],[140.551655,36.400038],[140.551639,36.400104],[140.550726,36.399964]]]}},{"type":"Feature","properties":{"kind":"building","id":"b34","name":"4号館","levels":3},"geometry":{"type":"Polygon","coordinates":[[[140.55087,36.400742],[140.550398,36.40067],[140.550426,36.400552],[140.550898,36.400624],[140.55087,36.400742]]]}},{"type":"Feature","properties":{"kind":"building","id":"b35","name":"8号館","levels":3},"geometry":{"type":"Polygon","coordinates":[[[140.551642,36.399738],[140.551649,36.399709],[140.551678,36.399713],[140.551743,36.399441],[140.552148,36.399503],[140.552125,36.399599],[140.552015,36.399582],[140.552022,36.399552],[140.551838,36.399524],[140.551794,36.399708],[140.551831,36.399714],[140.551819,36.399765],[140.551723,36.399751],[140.551725,36.399743],[140.551688,36.399738],[140.551686,36.399745],[140.551642,36.399738]]]}},{"type":"Feature","properties":{"kind":"building","id":"b36","name":"5号館","levels":2},"geometry":{"type":"Polygon","coordinates":[[[140.551018,36.400505],[140.551452,36.400572],[140.551388,36.400845],[140.550953,36.400778],[140.551018,36.400505]]]}},{"type":"Feature","properties":{"kind":"building","id":"b37","name":null,"levels":1},"geometry":{"type":"Polygon","coordinates":[[[140.552,36.40129],[140.551639,36.401234],[140.551648,36.401197],[140.551582,36.401187],[140.551615,36.401047],[140.551666,36.401055],[140.551675,36.401018],[140.552051,36.401076],[140.552,36.40129]]]}},{"type":"Feature","properties":{"kind":"road"},"geometry":{"type":"LineString","coordinates":[[140.5524784,36.3866451],[140.5526269,36.3870796],[140.5530698,36.3885026],[140.5532128,36.3889017],[140.5533452,36.389285],[140.5536,36.3900355],[140.5540245,36.39129],[140.5542668,36.3920645],[140.5543982,36.3924476],[140.5544609,36.3926318],[140.5545833,36.3929622],[140.5546952,36.3935004],[140.5547101,36.3936248],[140.5547332,36.3938755],[140.5547317,36.3942656],[140.5547043,36.3946313],[140.5545713,36.39524],[140.5543796,36.3965775],[140.5542143,36.3975199],[140.5541885,36.3976346],[140.5538343,36.3994673],[140.5535456,36.4008643],[140.5534069,36.4014578],[140.5533016,36.4020431],[140.5533213,36.4021924]]}},{"type":"Feature","properties":{"kind":"road"},"geometry":{"type":"LineString","coordinates":[[140.5505649,36.3970406],[140.5504577,36.3975349],[140.550365,36.397979],[140.5502827,36.3984256],[140.5501835,36.3988692]]}},{"type":"Feature","properties":{"kind":"road"},"geometry":{"type":"LineString","coordinates":[[140.5482488,36.4006724],[140.548072,36.4011049],[140.5480852,36.4012247],[140.5481362,36.4014573]]}},{"type":"Feature","properties":{"kind":"road"},"geometry":{"type":"LineString","coordinates":[[140.5558328,36.3997904],[140.5545766,36.3995855],[140.5539241,36.3994803],[140.5538343,36.3994673],[140.5516741,36.3991084],[140.5501835,36.3988692],[140.5496941,36.3987826],[140.5493636,36.3987306],[140.549241,36.3987454],[140.5490561,36.3987585],[140.5487337,36.3987649],[140.5485168,36.39877],[140.5483373,36.3987515],[140.5475619,36.3985935],[140.5468865,36.3984571],[140.5458039,36.3982379]]}},{"type":"Feature","properties":{"kind":"road"},"geometry":{"type":"LineString","coordinates":[[140.5493312,36.3968296],[140.5492464,36.3972849],[140.5492632,36.3973466],[140.549296,36.3974274],[140.5495539,36.3978537],[140.5495551,36.3983038],[140.5497749,36.3983501],[140.5496941,36.3987826]]}},{"type":"Feature","properties":{"kind":"road"},"geometry":{"type":"LineString","coordinates":[[140.5521113,36.3972871],[140.5519872,36.3977785],[140.5518813,36.398223],[140.5517698,36.3986683],[140.5516741,36.3991084]]}},{"type":"Feature","properties":{"kind":"road"},"geometry":{"type":"LineString","coordinates":[[140.5472591,36.4015684],[140.5478303,36.401723],[140.5482261,36.401817]]}},{"type":"Feature","properties":{"kind":"road"},"geometry":{"type":"LineString","coordinates":[[140.5481514,36.4020133],[140.5486241,36.4021317],[140.5487161,36.4021235]]}},{"type":"Feature","properties":{"kind":"road"},"geometry":{"type":"LineString","coordinates":[[140.5534771,36.3980264],[140.5533841,36.3984656],[140.5532811,36.3989067]]}},{"type":"Feature","properties":{"kind":"road"},"geometry":{"type":"LineString","coordinates":[[140.5476698,36.4005201],[140.5482488,36.4006724],[140.5484529,36.4007213]]}},{"type":"Feature","properties":{"kind":"road"},"geometry":{"type":"LineString","coordinates":[[140.5480421,36.4022982],[140.5489553,36.4025213],[140.5490106,36.4025062]]}},{"type":"Feature","properties":{"kind":"road"},"geometry":{"type":"LineString","coordinates":[[140.5483443,36.4015103],[140.5482261,36.401817],[140.5481514,36.4020133],[140.5480421,36.4022982],[140.5479304,36.4025818]]}},{"type":"Feature","properties":{"kind":"road"},"geometry":{"type":"LineString","coordinates":[[140.5473811,36.4012669],[140.5481362,36.4014573],[140.5483443,36.4015103],[140.5484651,36.401537],[140.5485366,36.401775],[140.5487161,36.4021235],[140.5490106,36.4025062],[140.5490877,36.4026223]]}},{"type":"Feature","properties":{"kind":"road"},"geometry":{"type":"LineString","coordinates":[[140.5502827,36.3984256],[140.5517698,36.3986683],[140.5532811,36.3989067]]}},{"type":"Feature","properties":{"kind":"road"},"geometry":{"type":"LineString","coordinates":[[140.5539358,36.4024217],[140.554252,36.4020442],[140.5548731,36.4013281],[140.5550046,36.401099],[140.5552287,36.4006484],[140.5552867,36.4005362],[140.5554289,36.4003452],[140.5555263,36.4002219],[140.5556944,36.4000127],[140.5558328,36.3997904],[140.5559076,36.3996846],[140.5559569,36.3995502],[140.5559989,36.3993615],[140.5561128,36.3989786],[140.5561349,36.3989196],[140.5563519,36.3986137],[140.5564154,36.3985048],[140.55677,36.3980945],[140.5567947,36.3980222]]}},{"type":"Feature","properties":{"kind":"road"},"geometry":{"type":"LineString","coordinates":[[140.5544758,36.4000478],[140.5555263,36.4002219]]}},{"type":"Feature","properties":{"kind":"road"},"geometry":{"type":"LineString","coordinates":[[140.5546605,36.3991409],[140.5559989,36.3993615]]}},{"type":"Feature","properties":{"kind":"road"},"geometry":{"type":"LineString","coordinates":[[140.5543792,36.4005106],[140.5552287,36.4006484]]}},{"type":"Feature","properties":{"kind":"road"},"geometry":{"type":"LineString","coordinates":[[140.554252,36.4020442],[140.5541292,36.4019897],[140.5540878,36.4019244],[140.5542797,36.4009764],[140.5543792,36.4005106],[140.5544758,36.4000478],[140.5545766,36.3995855],[140.5546605,36.3991409],[140.5547556,36.3986898],[140.5548562,36.3982462]]}},{"type":"Feature","properties":{"kind":"road"},"geometry":{"type":"LineString","coordinates":[[140.5536328,36.4008791],[140.5542797,36.4009764],[140.5550046,36.401099]]}},{"type":"Feature","properties":{"kind":"road"},"geometry":{"type":"LineString","coordinates":[[140.5485168,36.39877],[140.5484256,36.3990768],[140.5483746,36.3991024],[140.547868,36.399004],[140.5476578,36.3996035],[140.5472633,36.3995111]]}},{"type":"Feature","properties":{"kind":"road"},"geometry":{"type":"LineString","coordinates":[[140.5517615,36.403823],[140.5501802,36.4031719],[140.5503044,36.4028931],[140.5503448,36.4028142],[140.5504878,36.4025805],[140.5506647,36.4023382],[140.5506758,36.4023231],[140.551058,36.4018504],[140.5512997,36.4015406],[140.5513532,36.4014535]]}},{"type":"Feature","properties":{"kind":"road"},"geometry":{"type":"LineString","coordinates":[[140.5517615,36.403823],[140.5518008,36.4035028],[140.551859,36.403269],[140.551926,36.4029372],[140.5519578,36.4027297],[140.5520117,36.4023518],[140.5521543,36.401774]]}},{"type":"Feature","properties":{"kind":"campus"},"geometry":{"type":"Polygon","coordinates":[[[140.5491675,36.4004738],[140.5490516,36.4002063],[140.5491001,36.3995469],[140.5492639,36.3990661],[140.5493914,36.3988384],[140.5496803,36.3988347],[140.5517238,36.3991585],[140.5536953,36.3994865],[140.5536952,36.3995886],[140.5531908,36.4020281],[140.5513176,36.4013088],[140.5496047,36.4006204],[140.5491675,36.4004738]]]}},{"type":"Feature","properties":{"kind":"road"},"geometry":{"type":"LineString","coordinates":[[140.5533213,36.4021924],[140.5534016,36.4020662],[140.5535236,36.4014699],[140.5536328,36.4008791],[140.5539241,36.3994803],[140.5543262,36.3976514],[140.5543482,36.3975436],[140.5544991,36.3965797],[140.5546518,36.3952489],[140.5548011,36.3946379],[140.5548254,36.3942697],[140.5548277,36.3938814],[140.5548025,36.3936346],[140.5547864,36.3934992],[140.5546764,36.3929547],[140.5545793,36.3925948],[140.5543953,36.3920505],[140.5541174,36.3912551],[140.5536995,36.3900255],[140.5534519,36.3892919],[140.5533331,36.3888844],[140.5532151,36.3885114],[140.5527199,36.3870606],[140.5525992,36.3866651]]}},{"type":"Feature","properties":{"kind":"road"},"geometry":{"type":"LineString","coordinates":[[140.5630527,36.4088671],[140.5629592,36.4087492],[140.5627882,36.4085629],[140.5627419,36.4085142],[140.5626708,36.4084395],[140.5626452,36.4084179],[140.5625485,36.4083365],[140.5621892,36.4080935],[140.5620973,36.4080348],[140.5618104,36.4078516],[140.5616374,36.4077223],[140.5613224,36.407492],[140.5612031,36.4074065],[140.5609848,36.4072501],[140.5608756,36.4071523],[140.5601983,36.4065624],[140.5600912,36.4064563],[140.5596362,36.4060354],[140.5594173,36.4058724],[140.5593603,36.40583],[140.5592124,36.4057381],[140.558436,36.4052341],[140.5579506,36.4049433],[140.5573312,36.4045696],[140.5572402,36.4045138],[140.5567391,36.4041972],[140.5559322,36.4036873],[140.5552143,36.4032137],[140.5550278,36.4030844],[140.5544758,36.4027115],[140.5542259,36.4025526],[140.5540743,36.402476],[140.5539358,36.4024217],[140.5533213,36.4021924]]}},{"type":"Feature","properties":{"kind":"park"},"geometry":{"type":"Polygon","coordinates":[[[140.551181,36.3989986],[140.5512662,36.3986124],[140.5516382,36.3986763],[140.5516765,36.3987141],[140.5515946,36.3990258],[140.551545,36.3990477],[140.551181,36.3989986]]]}},{"type":"Feature","properties":{"kind":"park"},"geometry":{"type":"Polygon","coordinates":[[[140.5546168,36.3995456],[140.5546537,36.3995691],[140.5550365,36.3996392],[140.5551267,36.3992459],[140.5547275,36.3991837],[140.5546953,36.39921],[140.5546168,36.3995456]]]}},{"type":"Feature","properties":{"kind":"road"},"geometry":{"type":"LineString","coordinates":[[140.5503448,36.4028142],[140.549929,36.4026368],[140.5496956,36.4025136],[140.5496085,36.4024501],[140.5494938,36.4023414],[140.5497121,36.4021816],[140.5501979,36.4014518]]}},{"type":"Feature","properties":{"kind":"road"},"geometry":{"type":"LineString","coordinates":[[140.5494938,36.4023414],[140.5491337,36.4020454],[140.5493647,36.401661],[140.5496085,36.4012553],[140.5494321,36.4011868],[140.5491028,36.4010629],[140.5493365,36.4006145]]}},{"type":"Feature","properties":{"kind":"road"},"geometry":{"type":"LineString","coordinates":[[140.549241,36.3987454],[140.5492464,36.3989656],[140.5491672,36.3992182],[140.5486496,36.3994611]]}},{"type":"Feature","properties":{"kind":"road"},"geometry":{"type":"LineString","coordinates":[[140.5548731,36.4013281],[140.55518,36.4014479],[140.5553741,36.4015028],[140.5556507,36.401543],[140.556253,36.4015879],[140.5563758,36.4015872],[140.5567297,36.4015165],[140.5573014,36.401386],[140.5575883,36.4013068],[140.5580617,36.4010716],[140.5583837,36.4009411],[140.558581,36.4008827],[140.55953,36.4007122],[140.5602006,36.4005711],[140.5602642,36.4005372],[140.5606458,36.4004792],[140.5610454,36.4003527]]}},{"type":"Feature","properties":{"kind":"path"},"geometry":{"type":"LineString","coordinates":[[140.5515289,36.3997741],[140.5516195,36.3993758],[140.5516621,36.3991882],[140.5516741,36.3991084]]}},{"type":"Feature","properties":{"kind":"road"},"geometry":{"type":"LineString","coordinates":[[140.553224,36.4054564],[140.5532284,36.4053061],[140.5532274,36.4051962],[140.5532582,36.4042876],[140.5532873,36.4034103],[140.5533213,36.4021924]]}},{"type":"Feature","properties":{"kind":"road"},"geometry":{"type":"LineString","coordinates":[[140.5533213,36.4021924],[140.5530839,36.4021097],[140.5521543,36.401774],[140.5514176,36.4014793],[140.5513532,36.4014535],[140.5502866,36.401],[140.5502176,36.4009703],[140.5501432,36.4009383],[140.550024,36.400887],[140.5496873,36.4007421],[140.5493365,36.4006145],[140.5490183,36.4005125],[140.5481748,36.400261],[140.5479015,36.4001664],[140.5477869,36.4001268],[140.547206,36.3999381],[140.5471301,36.3999122],[140.5467433,36.3997817],[140.546584,36.399728],[140.5459338,36.3995129],[140.5455299,36.3993779],[140.5447749,36.3991228],[140.5444681,36.3990002],[140.5441757,36.3988709],[140.5439458,36.3987611],[140.543586,36.3985892],[140.5432995,36.3984781],[140.5430344,36.3983903],[140.5423555,36.3981924]]}},{"type":"Feature","properties":{"kind":"road"},"geometry":{"type":"LineString","coordinates":[[140.5474959,36.4009616],[140.548072,36.4011049]]}},{"type":"Feature","properties":{"kind":"path"},"geometry":{"type":"LineString","coordinates":[[140.5501432,36.4009383],[140.5502089,36.4007359],[140.550354,36.400112],[140.5503597,36.4000906],[140.5504602,36.3997132],[140.550446,36.3996363],[140.550577,36.3990438]]}},{"type":"Feature","properties":{"kind":"path"},"geometry":{"type":"LineString","coordinates":[[140.5503597,36.4000906],[140.5504691,36.400107],[140.5516989,36.4002915],[140.5523784,36.4004054],[140.5525021,36.3999172],[140.5526014,36.3995252],[140.5516195,36.3993758]]}},{"type":"Feature","properties":{"kind":"path"},"geometry":{"type":"LineString","coordinates":[[140.5504691,36.400107],[140.5504,36.4004111],[140.5516352,36.4006049],[140.5523041,36.4007017],[140.5523784,36.4004054]]}},{"type":"Feature","properties":{"kind":"path"},"geometry":{"type":"LineString","coordinates":[[140.5516352,36.4006049],[140.5516989,36.4002915]]}},{"type":"Feature","properties":{"kind":"path"},"geometry":{"type":"LineString","coordinates":[[140.5516989,36.4002915],[140.5518299,36.3998186],[140.5515289,36.3997741]]}},{"type":"Feature","properties":{"kind":"path"},"geometry":{"type":"LineString","coordinates":[[140.5518299,36.3998186],[140.5525021,36.3999172]]}},{"type":"Feature","properties":{"kind":"path"},"geometry":{"type":"LineString","coordinates":[[140.5514176,36.4014793],[140.5516352,36.4006049]]}},{"type":"Feature","properties":{"kind":"parking"},"geometry":{"type":"Polygon","coordinates":[[[140.5504573,36.3993937],[140.5505426,36.3990305],[140.5496625,36.3989324],[140.5495873,36.3993103],[140.5504573,36.3993937]]]}},{"type":"Feature","properties":{"kind":"track"},"geometry":{"type":"Polygon","coordinates":[[[140.5525409,36.4005626],[140.5526931,36.3999729],[140.5527745,36.399896],[140.5529054,36.3998476],[140.5530611,36.399839],[140.5532204,36.399859],[140.5533372,36.3999103],[140.5534292,36.3999815],[140.5534752,36.4000555],[140.5534752,36.4001638],[140.5533407,36.4007307],[140.5532664,36.4008104],[140.5531461,36.4008731],[140.552955,36.400876],[140.5527815,36.4008475],[140.5526647,36.4007933],[140.5525692,36.4007307],[140.5525409,36.4006424],[140.5525409,36.4005626]]]}},{"type":"Feature","properties":{"kind":"pitch"},"geometry":{"type":"Polygon","coordinates":[[[140.5522648,36.4007848],[140.553369,36.4009785],[140.5531602,36.4019755],[140.552056,36.4015682],[140.5522648,36.4007848]]]}},{"type":"Feature","properties":{"kind":"road"},"geometry":{"type":"LineString","coordinates":[[140.5496085,36.4012553],[140.5499682,36.4013945],[140.5497268,36.4018003],[140.5493647,36.401661]]}},{"type":"Feature","properties":{"kind":"path"},"geometry":{"type":"LineString","coordinates":[[140.5491028,36.4010629],[140.5489522,36.4012129],[140.5487049,36.4014592]]}},{"type":"Feature","properties":{"kind":"path"},"geometry":{"type":"LineString","coordinates":[[140.5506647,36.4023382],[140.5510132,36.4024733]]}},{"type":"Feature","properties":{"kind":"road"},"geometry":{"type":"LineString","coordinates":[[140.5500365,36.4012691],[140.5502176,36.4009703]]}},{"type":"Feature","properties":{"kind":"road"},"geometry":{"type":"LineString","coordinates":[[140.5498684,36.4011789],[140.550024,36.400887]]}},{"type":"Feature","properties":{"kind":"road"},"geometry":{"type":"LineString","coordinates":[[140.5489522,36.4012129],[140.5491911,36.4012986]]}},{"type":"Feature","properties":{"kind":"road"},"geometry":{"type":"LineString","coordinates":[[140.5479015,36.4001664],[140.5480182,36.3998114]]}}]}