{"type":"FeatureCollection","features":[{"type":"Feature","id":0,"geometry":{"type":"Polygon","coordinates":[[[140.551606,36.401344],[140.551709,36.401359],[140.551684,36.401463],[140.551581,36.401447],[140.551606,36.401344]]]},"properties":{"name":"弓道場","levels":1}},{"type":"Feature","id":1,"geometry":{"type":"Polygon","coordinates":[[[140.552227,36.400622],[140.551741,36.400547],[140.551774,36.400407],[140.55226,36.400482],[140.552227,36.400622]]]},"properties":{"name":"実習工場","levels":1}},{"type":"Feature","id":2,"geometry":{"type":"Polygon","coordinates":[[[140.552277,36.399408],[140.552071,36.399376],[140.55209,36.399295],[140.552296,36.399327],[140.552277,36.399408]]]},"properties":{"name":"合宿所","levels":1}},{"type":"Feature","id":3,"geometry":{"type":"Polygon","coordinates":[[[140.552122,36.399804],[140.551828,36.399759],[140.551859,36.399626],[140.552154,36.399672],[140.552122,36.399804]]]},"properties":{"name":"武道館","levels":2}},{"type":"Feature","id":4,"geometry":{"type":"Polygon","coordinates":[[[140.551649,36.400869],[140.551677,36.400751],[140.552156,36.400825],[140.552128,36.400943],[140.551649,36.400869]]]},"properties":{"name":"9号館","levels":1}},{"type":"Feature","id":5,"geometry":{"type":"Polygon","coordinates":[[[140.550494,36.400944],[140.550523,36.400819],[140.550789,36.40086],[140.55078,36.400896],[140.550765,36.400894],[140.550758,36.400924],[140.550773,36.400926],[140.550759,36.400985],[140.550494,36.400944]]]},"properties":{"name":"6号館","levels":2}},{"type":"Feature","id":6,"geometry":{"type":"Polygon","coordinates":[[[140.550602,36.400068],[140.550455,36.400045],[140.550507,36.399824],[140.550654,36.399846],[140.550602,36.400068]]]},"properties":{"name":"10号館","levels":3}},{"type":"Feature","id":7,"geometry":{"type":"Polygon","coordinates":[[[140.550334,36.399782],[140.550009,36.399732],[140.55003,36.399644],[140.550354,36.399694],[140.550334,36.399782]]]},"properties":{"name":"寮食堂","levels":1}},{"type":"Feature","id":8,"geometry":{"type":"Polygon","coordinates":[[[140.550003,36.400342],[140.549989,36.400401],[140.549804,36.400373],[140.549818,36.400314],[140.54987,36.400322],[140.549887,36.400248],[140.550241,36.400302],[140.550224,36.400376],[140.550003,36.400342]]]},"properties":{"name":"新友館","levels":3}},{"type":"Feature","id":9,"geometry":{"type":"Polygon","coordinates":[[[140.550272,36.400109],[140.549888,36.40005],[140.549906,36.399976],[140.550289,36.400035],[140.550272,36.400109]]]},"properties":{"name":"北友館","levels":3}},{"type":"Feature","id":10,"geometry":{"type":"Polygon","coordinates":[[[140.549566,36.400123],[140.549404,36.400098],[140.549487,36.399744],[140.54965,36.399769],[140.549566,36.400123]]]},"properties":{"name":"虹友館","levels":3}},{"type":"Feature","id":11,"geometry":{"type":"Polygon","coordinates":[[[140.549216,36.400245],[140.549227,36.4002],[140.549757,36.400282],[140.549749,36.400318],[140.549528,36.400285],[140.549514,36.400344],[140.549381,36.400323],[140.549393,36.400272],[140.549216,36.400245]]]},"properties":{"name":"西友館","levels":5}},{"type":"Feature","id":12,"geometry":{"type":"Polygon","coordinates":[[[140.549503,36.399548],[140.549517,36.399489],[140.549687,36.399515],[140.549673,36.399574],[140.549621,36.399566],[140.549611,36.39961],[140.549522,36.399597],[140.549533,36.399552],[140.549503,36.399548]]]},"properties":{"name":"紫峰館","levels":3}},{"type":"Feature","id":13,"geometry":{"type":"Polygon","coordinates":[[[140.551817,36.400093],[140.55187,36.399872],[140.552341,36.399945],[140.552332,36.399981],[140.552406,36.399993],[140.552375,36.400125],[140.552301,36.400114],[140.552289,36.400166],[140.551817,36.400093]]]},"properties":{"name":"第一体育館","levels":2.5}},{"type":"Feature","id":14,"geometry":{"type":"Polygon","coordinates":[[[140.552139,36.399799],[140.55221,36.399497],[140.55249,36.39954],[140.552419,36.399842],[140.552139,36.399799]]]},"properties":{"name":"プール","levels":2}},{"type":"Feature","id":15,"geometry":{"type":"Polygon","coordinates":[[[140.551697,36.399281],[140.551717,36.399192],[140.551791,36.399204],[140.55177,36.399292],[140.551697,36.399281]]]},"properties":{"name":"守衛所","levels":1}},{"type":"Feature","id":16,"geometry":{"type":"Polygon","coordinates":[[[140.550952,36.400266],[140.551008,36.40003],[140.551067,36.400039],[140.551011,36.400275],[140.550952,36.400266]]]},"properties":{"name":"2階渡り廊下","levels":1}},{"type":"Feature","id":17,"geometry":{"type":"Polygon","coordinates":[[[140.551618,36.400032],[140.551688,36.399738],[140.551725,36.399743],[140.551655,36.400038],[140.551618,36.400032]]]},"properties":{"name":"2階渡り廊下","levels":1}},{"type":"Feature","id":18,"geometry":{"type":"Polygon","coordinates":[[[140.550899,36.400716],[140.550906,36.400687],[140.550965,36.400696],[140.550958,36.400725],[140.550899,36.400716]]]},"properties":{"name":"1階渡り廊下"}},{"type":"Feature","id":19,"geometry":{"type":"Polygon","coordinates":[[[140.550851,36.400984],[140.550886,36.400836],[140.551313,36.400902],[140.551303,36.400946],[140.551362,36.400955],[140.551344,36.401029],[140.551388,36.401035],[140.551374,36.401094],[140.551109,36.401054],[140.551116,36.401024],[140.550851,36.400984]]]},"properties":{"name":"7号館"}},{"type":"Feature","id":20,"geometry":{"type":"Polygon","coordinates":[[[140.550239,36.399859],[140.549708,36.399778],[140.549747,36.399616],[140.549953,36.399647],[140.549939,36.399706],[140.549821,36.399688],[140.549811,36.399733],[140.550253,36.3998],[140.550239,36.399859]]]},"properties":{"name":"寄宿舎管理棟"}},{"type":"Feature","id":21,"geometry":{"type":"Polygon","coordinates":[[[140.550827,36.399247],[140.55062,36.399215],[140.55065,36.39909],[140.550856,36.399122],[140.550827,36.399247]]]},"properties":{"name":"情報センター"}},{"type":"Feature","id":22,"geometry":{"type":"Polygon","coordinates":[[[140.55083,36.399263],[140.550865,36.399115],[140.551271,36.399177],[140.551258,36.399229],[140.551339,36.399241],[140.551303,36.399396],[140.551038,36.399356],[140.551052,36.399297],[140.55083,36.399263]]]},"properties":{"name":"図書館棟","levels":1}},{"type":"Feature","id":23,"geometry":{"type":"Polygon","coordinates":[[[140.550622,36.399307],[140.550828,36.399339],[140.550807,36.399427],[140.550601,36.399395],[140.550622,36.399307]]]},"properties":{"name":"共用部室","levels":1}},{"type":"Feature","id":24,"geometry":{"type":"Polygon","coordinates":[[[140.55043,36.400377],[140.550492,36.400112],[140.550971,36.400185],[140.550952,36.400266],[140.551011,36.400275],[140.55103,36.400194],[140.551693,36.400296],[140.55163,36.400561],[140.550953,36.400457],[140.550965,36.400406],[140.550943,36.400402],[140.550931,36.400454],[140.55043,36.400377]],[[140.550567,36.400346],[140.551511,36.400489],[140.55154,36.400364],[140.550597,36.400221],[140.550567,36.400346]]]},"properties":{"type":"land"}},{"type":"Feature","id":25,"geometry":{"type":"Polygon","coordinates":[[[140.551331,36.399889],[140.551359,36.399771],[140.55175,36.399831],[140.551722,36.399949],[140.551331,36.399889]]]},"properties":{"type":"land"}},{"type":"Feature","id":26,"geometry":{"type":"Polygon","coordinates":[[[140.551643,36.400571],[140.551708,36.400298],[140.552371,36.4004],[140.552307,36.400672],[140.551643,36.400571]]]},"properties":{"type":"land"}},{"type":"Feature","id":27,"geometry":{"type":"Polygon","coordinates":[[[140.551733,36.400256],[140.551782,36.40005],[140.551819,36.400055],[140.551875,36.39982],[140.552486,36.399913],[140.552381,36.400355],[140.551733,36.400256]]]},"properties":{"type":"land"}},{"type":"Feature","id":28,"geometry":{"type":"Polygon","coordinates":[[[140.551305,36.39945],[140.551129,36.399423],[140.55112,36.39946],[140.551046,36.399448],[140.551041,36.399471],[140.55054,36.399394],[140.550638,36.398981],[140.55161,36.39913],[140.551526,36.399484],[140.551305,36.39945]]]},"properties":{"type":"land"}},{"type":"Feature","id":29,"geometry":{"type":"Polygon","coordinates":[[[140.550466,36.399673],[140.550515,36.399466],[140.550589,36.399478],[140.55054,36.399684],[140.550466,36.399673]]]},"properties":{"type":"land"}},{"type":"Feature","id":30,"geometry":{"type":"Polygon","coordinates":[[[140.550851,36.399724],[140.550645,36.399692],[140.550687,36.399516],[140.550893,36.399547],[140.550851,36.399724]]]},"properties":{"name":"茨友会館","levels":2}},{"type":"Feature","id":31,"geometry":{"type":"Polygon","coordinates":[[[140.551692,36.399334],[140.551704,36.399282],[140.55177,36.399292],[140.551791,36.399204],[140.551725,36.399194],[140.551735,36.399149],[140.552634,36.399287],[140.552587,36.399486],[140.55199,36.399395],[140.551994,36.39938],[140.551692,36.399334]],[[140.551915,36.399314],[140.552018,36.399329],[140.552039,36.399241],[140.551935,36.399225],[140.551915,36.399314]],[[140.552068,36.399375],[140.552275,36.399406],[140.552294,36.399325],[140.552087,36.399294],[140.552068,36.399375]]]},"properties":{"type":"land"}},{"type":"Feature","id":32,"geometry":{"type":"Polygon","coordinates":[[[140.550567,36.400345],[140.550597,36.400219],[140.551532,36.400363],[140.551503,36.400488],[140.550567,36.400345]]]},"properties":{"name":"2・3号館"}},{"type":"Feature","id":33,"geometry":{"type":"Polygon","coordinates":[[[140.550726,36.399964],[140.550748,36.399869],[140.551021,36.39991],[140.551078,36.399667],[140.550887,36.399638],[140.550909,36.399542],[140.551352,36.39961],[140.551334,36.399683],[140.551179,36.39966],[140.551167,36.399711],[140.551219,36.399719],[140.551172,36.399918],[140.551128,36.399911],[140.551119,36.399948],[140.55162,36.400025],[140.551618,36.400032],[140.551655,36.400038],[140.551639,36.400104],[140.550726,36.399964]]]},"properties":{"name":"1号館","levels":3}},{"type":"Feature","id":34,"geometry":{"type":"Polygon","coordinates":[[[140.55087,36.400742],[140.550398,36.40067],[140.550426,36.400552],[140.550898,36.400624],[140.55087,36.400742]]]},"properties":{"name":"4号館","levels":3}},{"type":"Feature","id":35,"geometry":{"type":"Polygon","coordinates":[[[140.551642,36.399738],[140.551649,36.399709],[140.551678,36.399713],[140.551743,36.399441],[140.552148,36.399503],[140.552125,36.399599],[140.552015,36.399582],[140.552022,36.399552],[140.551838,36.399524],[140.551794,36.399708],[140.551831,36.399714],[140.551819,36.399765],[140.551723,36.399751],[140.551725,36.399743],[140.551688,36.399738],[140.551686,36.399745],[140.551642,36.399738]]]},"properties":{"name":"8号館","levels":3}},{"type":"Feature","id":36,"geometry":{"type":"Polygon","coordinates":[[[140.551018,36.400505],[140.551452,36.400572],[140.551388,36.400845],[140.550953,36.400778],[140.551018,36.400505]]]},"properties":{"name":"5号館","levels":2}},{"type":"Feature","id":37,"geometry":{"type":"Polygon","coordinates":[[[140.552,36.40129],[140.551639,36.401234],[140.551648,36.401197],[140.551582,36.401187],[140.551615,36.401047],[140.551666,36.401055],[140.551675,36.401018],[140.552051,36.401076],[140.552,36.40129]]]},"properties":{"name":"第一体育館"}}]}